{
"type": "FeatureCollection",
"name": "nchoe_river_line",
"crs": { "type": "name", "properties": { "name": "urn:ogc:def:crs:OGC:1.3:CRS84" } },
"features": [
{ "type": "Feature", "properties": { }, "geometry": { "type": "LineString", "coordinates": [ [ 76.7769116, 30.6956096 ], [ 76.7761826, 30.695134899999989 ], [ 76.7756255, 30.6946111 ], [ 76.7747611, 30.693975199999986 ], [ 76.7741589, 30.6934472 ], [ 76.7737428, 30.6931591 ], [ 76.7735587, 30.6928805 ], [ 76.7736987, 30.692601899999985 ], [ 76.7736545, 30.6923707 ], [ 76.773614, 30.6921048 ], [ 76.773544, 30.6918768 ], [ 76.7732421, 30.6917375 ], [ 76.7730433, 30.691538 ], [ 76.7729438, 30.6912974 ], [ 76.7729217, 30.691142199999987 ], [ 76.7731353, 30.6907306 ], [ 76.7727708, 30.6905374 ], [ 76.7721117, 30.6904678 ], [ 76.77146, 30.6903126 ], [ 76.7712243, 30.6901987 ], [ 76.7711801, 30.6901797 ], [ 76.7710623, 30.6901702 ], [ 76.770893, 30.6901987 ], [ 76.7707972, 30.690262 ], [ 76.7706463, 30.690319 ], [ 76.770499, 30.6902873 ], [ 76.7703001, 30.69011 ], [ 76.7701013, 30.6898187 ], [ 76.770035, 30.6895211 ], [ 76.7699504, 30.6893089 ], [ 76.7697957, 30.6892551 ], [ 76.7696227, 30.6891791 ], [ 76.7695011, 30.6890904 ], [ 76.7694717, 30.6889796 ], [ 76.7695822, 30.6889226 ], [ 76.7697442, 30.6889226 ], [ 76.7699319, 30.6889385 ], [ 76.7701492, 30.6889796 ], [ 76.7704658, 30.6889701 ], [ 76.7705432, 30.688815 ], [ 76.7704879, 30.6886281 ], [ 76.7703075, 30.6883527 ], [ 76.7700755, 30.688226 ], [ 76.7697957, 30.688169 ], [ 76.7695122, 30.688264 ], [ 76.769387, 30.6882229 ], [ 76.7692434, 30.6880677 ], [ 76.7692692, 30.6878271 ], [ 76.7693023, 30.6877416 ], [ 76.7693539, 30.6875737 ], [ 76.7693428, 30.6873964 ], [ 76.7692581, 30.6872476 ], [ 76.7688347, 30.686912 ], [ 76.7685033, 30.6867663 ], [ 76.7683965, 30.6866745 ], [ 76.768345, 30.6865447 ], [ 76.7683487, 30.6864338 ], [ 76.7683965, 30.6863483 ], [ 76.7685696, 30.6862248 ], [ 76.768658, 30.6861425 ], [ 76.768709500000014, 30.6860095 ], [ 76.7686506, 30.6858385 ], [ 76.7685659, 30.685791 ], [ 76.7684297, 30.6857879 ], [ 76.7682272, 30.6858354 ], [ 76.7680062, 30.6859462 ], [ 76.7678258, 30.6860919 ], [ 76.7677596, 30.6862248 ], [ 76.767697, 30.6864307 ], [ 76.7677485, 30.6869183 ], [ 76.7678037, 30.6871019 ], [ 76.7677964, 30.6872603 ], [ 76.7677264, 30.6874091 ], [ 76.767616, 30.687478699999986 ], [ 76.7672809, 30.6872793 ], [ 76.7666697, 30.686969 ], [ 76.7664193, 30.6868866 ], [ 76.7661358, 30.686829599999985 ], [ 76.7657053, 30.6866699 ], [ 76.764987, 30.6860539 ], [ 76.764616, 30.6855 ], [ 76.7644982, 30.6851771 ], [ 76.7644475, 30.6849408 ], [ 76.7643626, 30.6847885 ], [ 76.7642813, 30.6846415 ], [ 76.7641527, 30.6845575 ], [ 76.7639134, 30.684546699999984 ], [ 76.7635114, 30.6846578 ], [ 76.7630622, 30.684727399999986 ], [ 76.7625684, 30.6848596 ], [ 76.7623161, 30.6849066 ], [ 76.7621543, 30.684886 ], [ 76.7620302, 30.6847779 ], [ 76.76202, 30.6846441 ], [ 76.7620872, 30.6844528 ], [ 76.7621932, 30.6842461 ], [ 76.7622635, 30.6840051 ], [ 76.7622425, 30.6837992 ], [ 76.7621417, 30.6835682 ], [ 76.7619787, 30.6834114 ], [ 76.7617219, 30.6832902 ], [ 76.7614495, 30.683226500000011 ], [ 76.7611636, 30.6831927 ], [ 76.7608041, 30.6830496 ], [ 76.7605348, 30.682917499999984 ], [ 76.7600056, 30.6827382 ], [ 76.7597362, 30.68264760000001 ], [ 76.759478, 30.6825809 ], [ 76.759093900000011, 30.6825176 ], [ 76.7587753, 30.6825031 ], [ 76.7585027, 30.6825305 ], [ 76.7583088, 30.6826042 ], [ 76.7581172, 30.6827135 ], [ 76.7579698, 30.6826853 ], [ 76.7577744, 30.6826308 ], [ 76.7574984, 30.6825074 ], [ 76.7574104, 30.6823154 ], [ 76.7573632, 30.6820503 ], [ 76.7572383, 30.6818821 ], [ 76.7570242, 30.6816933 ], [ 76.7567513, 30.6814344 ], [ 76.7564235, 30.681109 ], [ 76.756271, 30.680867 ], [ 76.7560502, 30.6805029 ], [ 76.7558403, 30.680240499999989 ], [ 76.7556178, 30.680048 ], [ 76.7554926, 30.6798763 ], [ 76.755365900000015, 30.6796797 ], [ 76.7552293, 30.6795559 ], [ 76.7550929, 30.6792756 ], [ 76.7550792, 30.6790813 ], [ 76.7550995, 30.6788784 ], [ 76.7550468, 30.6786508 ], [ 76.7550717, 30.6783318 ], [ 76.7551038, 30.6781171 ], [ 76.7551424, 30.6777869 ], [ 76.7551265, 30.6774946 ], [ 76.755146900000014, 30.677269 ], [ 76.7551607, 30.677094 ], [ 76.7551424, 30.6769524 ], [ 76.755058, 30.6768306 ], [ 76.754962, 30.6767609 ], [ 76.7547789, 30.6766819 ], [ 76.7545952, 30.6766454 ], [ 76.754435, 30.6766151 ], [ 76.7543043, 30.6765114 ], [ 76.7542246, 30.6764342 ], [ 76.7541311, 30.6763752 ], [ 76.75401, 30.6763312 ], [ 76.7538872, 30.6762662 ], [ 76.753762, 30.676218 ], [ 76.7536371, 30.6761844 ], [ 76.753505, 30.6761669 ], [ 76.753318, 30.6761391 ], [ 76.753177400000013, 30.6760923 ], [ 76.7530989, 30.6759816 ], [ 76.7531081, 30.6758195 ], [ 76.7531342, 30.6756598 ], [ 76.75327, 30.6754886 ], [ 76.7534956, 30.6753355 ], [ 76.7536347, 30.675120799999988 ], [ 76.7537733, 30.6748485 ], [ 76.7538618, 30.6746585 ], [ 76.7539057, 30.6744308 ], [ 76.7539372, 30.6742483 ], [ 76.7539008, 30.6740798 ], [ 76.7538202, 30.6739102 ], [ 76.7537223, 30.6735674 ], [ 76.753736, 30.6734104 ], [ 76.7537773, 30.6732132 ], [ 76.7538147, 30.6730913 ], [ 76.7537958, 30.6729315 ], [ 76.7537245, 30.67276540000001 ], [ 76.7535448, 30.6726261 ], [ 76.7533951, 30.6725995 ], [ 76.753202, 30.6725921 ], [ 76.7529489, 30.6726059 ], [ 76.7527696, 30.6725269 ], [ 76.7526604, 30.6723696 ], [ 76.7526347, 30.6722548 ], [ 76.7526021, 30.6720676 ], [ 76.7526053, 30.6719123 ], [ 76.752656, 30.6717862 ], [ 76.7527309, 30.6716908 ], [ 76.75290050000001, 30.671579499999986 ], [ 76.7532726, 30.6713714 ], [ 76.7535104, 30.6712531 ], [ 76.7537284, 30.6711272 ], [ 76.7539042, 30.6709822 ], [ 76.7539628, 30.6708546 ], [ 76.7539851, 30.6707989 ], [ 76.754006, 30.67077 ], [ 76.7540548, 30.6707059 ], [ 76.7541282, 30.6706501 ], [ 76.7542495, 30.6706364 ], [ 76.7544465, 30.6706175 ], [ 76.7545494, 30.6705446 ], [ 76.7546504, 30.6704492 ], [ 76.7547827, 30.6702823 ], [ 76.7548103, 30.6701545 ], [ 76.7547068, 30.669931500000011 ], [ 76.7546481, 30.669769 ], [ 76.7545507, 30.6696717 ], [ 76.7543992, 30.6695017 ], [ 76.75433, 30.6693128 ], [ 76.7542764, 30.6690548 ], [ 76.75410650000002, 30.6688699 ], [ 76.7539255, 30.668776799999989 ], [ 76.7537531, 30.66878190000001 ], [ 76.753071, 30.6690566 ], [ 76.7528214, 30.6690137 ], [ 76.7526075, 30.6689032 ], [ 76.7526075, 30.6683941 ], [ 76.7527287, 30.6677561 ], [ 76.752849900000015, 30.6675844 ], [ 76.7529855, 30.6673635 ], [ 76.7530924, 30.6671366 ], [ 76.7530354, 30.6669035 ], [ 76.7526217, 30.6663452 ], [ 76.7522794, 30.6661428 ], [ 76.7520583, 30.6660937 ], [ 76.7515377, 30.6661919 ], [ 76.7512524, 30.6660692 ], [ 76.751174, 30.6658913 ], [ 76.7510884, 30.6657073 ], [ 76.7504893, 30.6654803 ], [ 76.7500971, 30.66514290000001 ], [ 76.7495622, 30.6648423 ], [ 76.7492555, 30.6647994 ], [ 76.7489204, 30.664738 ], [ 76.7484925, 30.6644313 ], [ 76.747979, 30.6639712 ], [ 76.747765, 30.6630019 ], [ 76.7477436, 30.6623701 ], [ 76.7476937, 30.6619713 ], [ 76.747872, 30.661676899999986 ], [ 76.7482001, 30.6615419 ], [ 76.7485424, 30.6614376 ], [ 76.7490416, 30.6610695 ], [ 76.7491771, 30.6610634 ], [ 76.7493839, 30.6611063 ], [ 76.7495266, 30.6612106 ], [ 76.7496549, 30.66143760000001 ], [ 76.7498831, 30.6617198 ], [ 76.75009, 30.6618364 ], [ 76.7505464, 30.6617934 ], [ 76.7506676, 30.6615173 ], [ 76.7505107, 30.6612597 ], [ 76.7502825, 30.6609959 ], [ 76.7500115, 30.6606217 ], [ 76.7495907, 30.6598855 ], [ 76.7492555, 30.6592677 ], [ 76.7480713, 30.6581786 ], [ 76.7474027, 30.6575721 ], [ 76.7472527, 30.6574381 ], [ 76.7471451, 30.6573546 ], [ 76.747079, 30.65734 ], [ 76.7469813, 30.657326 ], [ 76.7468986, 30.6573248 ], [ 76.7468158, 30.6573143 ], [ 76.746723, 30.657272700000014 ], [ 76.7465675, 30.6571976 ], [ 76.7464223, 30.6571194 ], [ 76.7462716, 30.657005 ], [ 76.74613, 30.6569416 ], [ 76.7459717, 30.6569011 ], [ 76.745788500000018, 30.6568497 ], [ 76.7456564, 30.656779499999988 ], [ 76.7454862, 30.6566659 ], [ 76.7452064, 30.6564495 ], [ 76.7451128, 30.656377 ], [ 76.7449254, 30.6562362 ], [ 76.7447179, 30.6561155 ], [ 76.7445907, 30.6560792 ], [ 76.7444682, 30.6560395 ], [ 76.7442593, 30.6559612 ], [ 76.7442247, 30.6559477 ], [ 76.7442016, 30.6559419 ], [ 76.7441765, 30.6559512 ], [ 76.7441365, 30.655984499999988 ], [ 76.7440768, 30.656033 ], [ 76.7439934, 30.6560747 ], [ 76.7438094, 30.6561458 ], [ 76.7437076, 30.6561536 ], [ 76.7436153, 30.6561225 ], [ 76.7435139, 30.6560496 ], [ 76.743346, 30.6560011 ], [ 76.7431989, 30.6559663 ], [ 76.7429932, 30.6558797 ], [ 76.7429155, 30.6557976 ], [ 76.7428525, 30.6557205 ], [ 76.7428537, 30.6556123 ], [ 76.7428445, 30.6554464 ], [ 76.7427617, 30.6552786 ], [ 76.7426566, 30.6551677 ], [ 76.7425372, 30.655097099999988 ], [ 76.742408900000015, 30.6550835 ], [ 76.742255, 30.6551116 ], [ 76.7421156, 30.6551332 ], [ 76.7419608, 30.6551028 ], [ 76.7419224, 30.6550704 ], [ 76.7417618, 30.6548162 ], [ 76.7416346, 30.654585 ], [ 76.7415032, 30.6543565 ], [ 76.741364, 30.6541564 ], [ 76.7411281, 30.6539614 ], [ 76.7409964, 30.6538843 ], [ 76.7408064, 30.6537638 ], [ 76.740722, 30.6536714 ], [ 76.7406636, 30.6534905 ], [ 76.740626, 30.6533214 ], [ 76.7406068, 30.6531249 ], [ 76.7404987, 30.652881 ], [ 76.7402499, 30.6522795 ], [ 76.740155, 30.6520322 ], [ 76.7400999, 30.651805299999989 ], [ 76.7399716, 30.651611 ], [ 76.7398411, 30.6514921 ], [ 76.7397064, 30.6514929 ], [ 76.7395897, 30.6515499 ], [ 76.7394543, 30.6516457 ], [ 76.73938290000001, 30.6517491 ], [ 76.7393385, 30.6519534 ], [ 76.7392337, 30.6522144 ], [ 76.7390135, 30.6523361 ], [ 76.7389105, 30.6523762 ], [ 76.7387875, 30.6523622 ], [ 76.7386473, 30.6523167 ], [ 76.7385189, 30.6522582 ], [ 76.7383911, 30.6521556 ], [ 76.7383057, 30.6519936 ], [ 76.7381628, 30.6517368 ], [ 76.7381598, 30.6516512 ], [ 76.738183, 30.6515615 ], [ 76.7382906, 30.6514631 ], [ 76.7385646, 30.651242 ], [ 76.7387752, 30.651064300000012 ], [ 76.7388863, 30.6509118 ], [ 76.7389253, 30.6508037 ], [ 76.7389323, 30.6506888 ], [ 76.7389209, 30.6505808 ], [ 76.7388351, 30.6504287 ], [ 76.7384902, 30.6501826 ], [ 76.7382141, 30.6500669 ], [ 76.7378602, 30.649872 ], [ 76.7372302, 30.6495858 ], [ 76.7368763, 30.649464 ], [ 76.7366293, 30.6494092 ], [ 76.7364028, 30.6493301 ], [ 76.7361833, 30.6492783 ], [ 76.7360736, 30.6492052 ], [ 76.7360529, 30.6491436 ], [ 76.7359115, 30.6489136 ], [ 76.7349864, 30.648467 ], [ 76.7348251, 30.648337 ], [ 76.7348148, 30.6481842 ], [ 76.734906, 30.6480734 ], [ 76.7351421, 30.6478889 ], [ 76.7352922, 30.6476304 ], [ 76.7353406, 30.6472289 ], [ 76.7352886, 30.647048 ], [ 76.7352277, 30.6468535 ], [ 76.735308100000012, 30.6467104 ], [ 76.7355712, 30.6465136 ], [ 76.7357322, 30.6462966 ], [ 76.7355645, 30.6459751 ], [ 76.735244, 30.6456689 ], [ 76.7349903, 30.6450542 ], [ 76.7348441, 30.6443916 ], [ 76.7347978, 30.6438792 ], [ 76.7347942, 30.643434400000011 ], [ 76.7348584, 30.6431951 ], [ 76.7351053, 30.6428326 ], [ 76.7350887, 30.6426586 ], [ 76.7350533, 30.6425039 ], [ 76.7350573, 30.6423041 ], [ 76.7350963, 30.642066 ], [ 76.735218, 30.6416816 ], [ 76.7353764, 30.6414558 ], [ 76.7353929, 30.6412838 ], [ 76.7352912, 30.6410725 ], [ 76.7351431, 30.6410708 ], [ 76.73504770000001, 30.6410063 ], [ 76.7349606, 30.6407992 ], [ 76.7349446, 30.6407167 ], [ 76.7348763, 30.640631 ], [ 76.7347592, 30.6406013 ], [ 76.734646, 30.6406029 ], [ 76.7345289, 30.6406294 ], [ 76.7343509, 30.640681 ], [ 76.7342295, 30.6407086 ], [ 76.7341259, 30.6407202 ], [ 76.7340549, 30.6407119 ], [ 76.7339225, 30.6407018 ], [ 76.7337969, 30.6407129 ], [ 76.7336749, 30.6407449 ], [ 76.7335865, 30.6407731 ], [ 76.7334768, 30.6408347 ], [ 76.7333986, 30.6408836 ], [ 76.733341, 30.6409381 ], [ 76.7333026, 30.6410025 ], [ 76.7332681, 30.6410851 ], [ 76.7332538, 30.6411827 ], [ 76.7332801, 30.641297 ], [ 76.7333558, 30.6414923 ], [ 76.7334531, 30.6416851 ], [ 76.7334849, 30.6417852 ], [ 76.7334898, 30.6418947 ], [ 76.7334792, 30.6421451 ], [ 76.7334528, 30.64243870000001 ], [ 76.7334408, 30.642548 ], [ 76.7334081, 30.6426504 ], [ 76.733364, 30.6427444 ], [ 76.7333102, 30.6428335 ], [ 76.7332393, 30.6428848 ], [ 76.7331731, 30.642916599999985 ], [ 76.7330992, 30.6429294 ], [ 76.7330301, 30.642936 ], [ 76.7329668, 30.6429178 ], [ 76.732873, 30.6428609 ], [ 76.7327921, 30.64279070000001 ], [ 76.7326694, 30.6426686 ], [ 76.7325906, 30.6426041 ], [ 76.7324947, 30.6425579 ], [ 76.7323584, 30.6425447 ], [ 76.7322375, 30.6425678 ], [ 76.7320822, 30.6425899 ], [ 76.7319752, 30.6425714 ], [ 76.7318556, 30.6425215 ], [ 76.7317366, 30.6424368 ], [ 76.731656, 30.64233 ], [ 76.7315926, 30.6421982 ], [ 76.731539, 30.6420493 ], [ 76.7315136, 30.6417409 ], [ 76.7316313, 30.6412838 ], [ 76.7317751, 30.6409391 ], [ 76.7318648, 30.6406186 ], [ 76.7319079, 30.6403526 ], [ 76.7319215, 30.6401743 ], [ 76.7318932, 30.6400075 ], [ 76.7318701, 30.6399106 ], [ 76.7317616, 30.6398859 ], [ 76.7315422, 30.6399429 ], [ 76.7312052, 30.6400447 ], [ 76.7308539, 30.6401056 ], [ 76.7307189, 30.640096400000012 ], [ 76.7305171, 30.6401273 ], [ 76.7303616, 30.6401932 ], [ 76.730256400000016, 30.6402598 ], [ 76.7301449, 30.6403607 ], [ 76.7300612, 30.6404861 ], [ 76.7300242, 30.6406016 ], [ 76.7301185, 30.6408275 ], [ 76.7301717, 30.6409737 ], [ 76.7301816, 30.6411382 ], [ 76.730172, 30.6412819 ], [ 76.7300856, 30.6414024 ], [ 76.7299398, 30.6414949 ], [ 76.729784200000012, 30.6415353 ], [ 76.7296308, 30.641594 ], [ 76.7295118, 30.6417017 ], [ 76.7294543, 30.641818499999985 ], [ 76.7293948, 30.6419935 ], [ 76.7293947, 30.6421024 ], [ 76.7293737, 30.6421917 ], [ 76.7293241, 30.6422471 ], [ 76.729214400000018, 30.6423089 ], [ 76.7290707, 30.6423398 ], [ 76.7289497, 30.6423759 ], [ 76.7287955, 30.6424626 ], [ 76.7286493, 30.6425895 ], [ 76.7282467, 30.6429185 ], [ 76.7276482, 30.6432626 ], [ 76.7273843, 30.6433914 ], [ 76.7270919, 30.6434436 ], [ 76.7269207, 30.6434344 ], [ 76.7266426, 30.6433853 ], [ 76.7263324, 30.6432074 ], [ 76.7259651, 30.6429098 ], [ 76.7253781, 30.6424751 ], [ 76.7251915, 30.6424252 ], [ 76.7250074, 30.6423796 ], [ 76.7248536, 30.6424057 ], [ 76.7247175, 30.6424317 ], [ 76.7246191, 30.642282 ], [ 76.724546, 30.6421128 ], [ 76.724367, 30.6416659 ], [ 76.7242535, 30.6414815 ], [ 76.724041700000015, 30.6412711 ], [ 76.7239005, 30.641219 ], [ 76.7236711, 30.6411518 ], [ 76.7233685, 30.6410672 ], [ 76.7231516, 30.6409131 ], [ 76.7230382, 30.6407461 ], [ 76.7229701, 30.6406658 ], [ 76.722844, 30.6406051 ], [ 76.7226852, 30.6405769 ], [ 76.722436, 30.6405456 ], [ 76.7221485, 30.640489200000012 ], [ 76.7218863, 30.6403764 ], [ 76.7217249, 30.6402896 ], [ 76.7215383, 30.6402072 ], [ 76.7214022, 30.6401247 ], [ 76.7212912, 30.6400813 ], [ 76.7211551, 30.640038 ], [ 76.7210088, 30.6399946 ], [ 76.7208525, 30.6399859 ], [ 76.7206205, 30.6399859 ], [ 76.7203533, 30.6399859 ], [ 76.7198848, 30.6398058 ], [ 76.7197966, 30.6397364 ], [ 76.7195671, 30.6394262 ], [ 76.7193805, 30.6392136 ], [ 76.718949400000014, 30.6389315 ], [ 76.7186997, 30.6387385 ], [ 76.7185207, 30.6383827 ], [ 76.718361900000019, 30.6379379 ], [ 76.7183064, 30.6377318 ], [ 76.7182408, 30.6375019 ], [ 76.718256, 30.6372177 ], [ 76.7183846, 30.6369313 ], [ 76.7185056, 30.6366579 ], [ 76.7186518, 30.636362899999988 ], [ 76.7188535, 30.6358552 ], [ 76.7190679, 30.635488599999984 ], [ 76.7192217, 30.6352673 ], [ 76.7193704, 30.6350503 ], [ 76.7195142, 30.6348312 ], [ 76.7195646, 30.6346012 ], [ 76.7194965, 30.6343279 ], [ 76.7191965, 30.6340263 ], [ 76.7188031, 30.6338267 ], [ 76.718614, 30.6337855 ], [ 76.7184199, 30.63377250000001 ], [ 76.7179584, 30.633818 ], [ 76.7177138, 30.6338549 ], [ 76.7175979, 30.6338918 ], [ 76.7173608, 30.633889599999986 ], [ 76.7170986, 30.6338159 ], [ 76.7168263, 30.6337247 ], [ 76.7166019, 30.6336531 ], [ 76.7161556, 30.63347090000001 ], [ 76.7158429, 30.6332583 ], [ 76.7156261, 30.6329741 ], [ 76.7155479, 30.6326052 ], [ 76.7155277, 30.6324186 ], [ 76.715611, 30.632193 ], [ 76.7157093, 30.6320455 ], [ 76.7158505, 30.6318741 ], [ 76.7160018, 30.631637599999987 ], [ 76.7161102, 30.6313837 ], [ 76.7161505, 30.6310691 ], [ 76.7160951, 30.6306613 ], [ 76.7159967, 30.6303315 ], [ 76.7157118, 30.6299431 ], [ 76.7156387, 30.6295526 ], [ 76.7156614, 30.629264 ], [ 76.7156916, 30.6290384 ], [ 76.7157723, 30.628593599999981 ], [ 76.7158127, 30.6281922 ], [ 76.715911, 30.627602 ], [ 76.7160018, 30.6273135 ], [ 76.7160859, 30.6268875 ], [ 76.7160706, 30.6267231 ], [ 76.715917800000014, 30.6264864 ], [ 76.7157497, 30.6262761 ], [ 76.7154671, 30.6261577 ], [ 76.7152149, 30.626184 ], [ 76.7147718, 30.6263089 ], [ 76.7145274, 30.6264141 ], [ 76.7142752, 30.6265259 ], [ 76.7140842, 30.6266902 ], [ 76.7139162, 30.6268546 ], [ 76.7137501, 30.6271355 ], [ 76.7135282, 30.6272288 ], [ 76.7131425, 30.6272267 ], [ 76.7124238, 30.6268752 ], [ 76.712202, 30.6267537 ], [ 76.7118969, 30.6265519 ], [ 76.7115892, 30.6262156 ], [ 76.7114682, 30.6260138 ], [ 76.7112337, 30.625556 ], [ 76.7110723, 30.6252522 ], [ 76.7110068, 30.624915900000012 ], [ 76.7109286, 30.6246664 ], [ 76.7109084, 30.624393 ], [ 76.7108253, 30.6241383 ], [ 76.7108221, 30.6238738 ], [ 76.7109664, 30.6237334 ], [ 76.710911, 30.6235663 ], [ 76.7106008, 30.6234122 ], [ 76.7104243, 30.6234253 ], [ 76.7102856, 30.6234231 ], [ 76.7101091, 30.6234556 ], [ 76.7099402, 30.6235641 ], [ 76.7098066, 30.6236943 ], [ 76.7096553, 30.6238245 ], [ 76.7093552, 30.6241825 ], [ 76.709209, 30.624373499999987 ], [ 76.7090552, 30.6245405 ], [ 76.7088787, 30.6246968 ], [ 76.708682, 30.6248204 ], [ 76.7083719, 30.6249723 ], [ 76.7081248, 30.6250461 ], [ 76.7078348, 30.6251481 ], [ 76.7075801, 30.6252435 ], [ 76.7072347, 30.625276099999986 ], [ 76.706947200000016, 30.6252479 ], [ 76.7067985, 30.6250135 ], [ 76.7068338, 30.624892 ], [ 76.706917, 30.6246707 ], [ 76.7069851, 30.6245102 ], [ 76.7070002, 30.6243387 ], [ 76.7069599, 30.6241435 ], [ 76.7068918, 30.6240089 ], [ 76.7066396, 30.6238787 ], [ 76.7063068, 30.623792 ], [ 76.7058025, 30.6236987 ], [ 76.7054092, 30.6236401 ], [ 76.7050461, 30.6236205 ], [ 76.70463, 30.623729 ], [ 76.7044258, 30.6237572 ], [ 76.703924, 30.6237789 ], [ 76.7035307, 30.6236987 ], [ 76.7029583, 30.6236401 ], [ 76.7024465, 30.6236097 ], [ 76.7020581, 30.6236314 ], [ 76.701685, 30.623681300000012 ], [ 76.7014606, 30.6237442 ], [ 76.7012866, 30.6238158 ], [ 76.7011681, 30.6239482 ], [ 76.7010899, 30.6240697 ], [ 76.7010723, 30.6242129 ], [ 76.7011429, 30.624436400000011 ], [ 76.7015589, 30.6248421 ], [ 76.7016951, 30.6250461 ], [ 76.7017556, 30.6252782 ], [ 76.7017581, 30.6257187 ], [ 76.7015715, 30.626016 ], [ 76.7013849, 30.6262828 ], [ 76.7012563, 30.6264412 ], [ 76.7008151, 30.6265519 ], [ 76.7006234, 30.626580099999988 ], [ 76.7002402, 30.6266257 ], [ 76.6998519, 30.626669 ], [ 76.6994585, 30.6267255 ], [ 76.699130700000012, 30.6268036 ], [ 76.6987273, 30.6269294 ], [ 76.6983945, 30.6269251 ], [ 76.6982104, 30.6268839 ], [ 76.6979255, 30.626669 ], [ 76.6975069, 30.6262698 ], [ 76.6972472, 30.6258923 ], [ 76.6971464, 30.6257382 ], [ 76.6970858, 30.6255864 ], [ 76.6970203, 30.6253368 ], [ 76.6971085, 30.6251546 ], [ 76.697292600000011, 30.624853 ], [ 76.6973733, 30.6244602 ], [ 76.6974741, 30.6241001 ], [ 76.6975775, 30.623959 ], [ 76.6976759, 30.6238093 ], [ 76.697928, 30.6236292 ], [ 76.6983516, 30.6233385 ], [ 76.6985029, 30.6232495 ], [ 76.6987828, 30.6230564 ], [ 76.698908900000021, 30.6229262 ], [ 76.6988609, 30.6227222 ], [ 76.6985584, 30.6224684 ], [ 76.6982634, 30.6220952 ], [ 76.6980188, 30.621672 ], [ 76.6976885, 30.621199 ], [ 76.697043, 30.6208952 ], [ 76.6965715, 30.6206739 ], [ 76.6960445, 30.620585 ], [ 76.6955099, 30.620498200000011 ], [ 76.6950964, 30.620285499999987 ], [ 76.6947333, 30.6200555 ], [ 76.6942845, 30.6198797 ], [ 76.6939164, 30.6197626 ], [ 76.6937626, 30.6195998 ], [ 76.6937399, 30.6194284 ], [ 76.693866, 30.6191984 ], [ 76.6940803, 30.6188469 ], [ 76.6941685, 30.6186603 ], [ 76.6941862, 30.6184802 ], [ 76.6940324, 30.6182719 ], [ 76.693775200000019, 30.6181135 ], [ 76.6936693, 30.6180722 ], [ 76.6934676, 30.618018 ], [ 76.6932734, 30.6180397 ], [ 76.6929759, 30.6181655 ], [ 76.6924565, 30.6181352 ], [ 76.6920934, 30.6180852 ], [ 76.6918866, 30.6179919 ], [ 76.691579, 30.617673 ], [ 76.6914, 30.617265 ], [ 76.6911201, 30.616896100000012 ], [ 76.6907797, 30.6164079 ], [ 76.6905931, 30.6160086 ], [ 76.690462, 30.615535599999987 ], [ 76.6903611, 30.6150473 ], [ 76.6902754, 30.614622 ], [ 76.6900611, 30.6140448 ], [ 76.689935, 30.6134437 ], [ 76.689872, 30.6129988 ], [ 76.6896904, 30.6124021 ], [ 76.689524, 30.6120961 ], [ 76.689345, 30.6116729 ], [ 76.6890298, 30.6111912 ], [ 76.6887499, 30.610835300000012 ], [ 76.688318800000019, 30.6104273 ], [ 76.6877993, 30.6099152 ], [ 76.6874161, 30.6096048 ], [ 76.6870933, 30.609416 ], [ 76.6867101, 30.6091339 ], [ 76.6862612, 30.6088735 ], [ 76.6861512, 30.6087902 ], [ 76.6859889, 30.608667400000012 ], [ 76.685762, 30.6085372 ], [ 76.6857217, 30.6083332 ], [ 76.6857267, 30.6081617 ], [ 76.685704, 30.6078644 ], [ 76.6856032, 30.6075866 ], [ 76.6855225, 30.607445599999984 ], [ 76.6854443, 30.6071396 ], [ 76.6854418, 30.6069399 ], [ 76.6855275, 30.6067272 ], [ 76.6857948, 30.606347499999988 ], [ 76.6859486, 30.6060133 ], [ 76.6861175, 30.6057398 ], [ 76.6863672, 30.6054816 ], [ 76.6866546, 30.6052233 ], [ 76.6870076, 30.6050019 ], [ 76.6874842, 30.604793599999986 ], [ 76.6877892, 30.6046699 ], [ 76.6880389, 30.6043748 ], [ 76.6881473, 30.6040102 ], [ 76.6880111, 30.603791 ], [ 76.6875346, 30.6034893 ], [ 76.686942, 30.603179 ], [ 76.6860167, 30.602916399999987 ], [ 76.6853207, 30.6027883 ], [ 76.6846828, 30.602664600000011 ], [ 76.6841231, 30.6026906 ], [ 76.6836087, 30.6027427 ], [ 76.683175, 30.6028903 ], [ 76.6829228, 30.6030292 ], [ 76.6826783, 30.6031963 ], [ 76.6824286, 30.6035045 ], [ 76.6821891, 30.6038148 ], [ 76.6819697, 30.603929899999986 ], [ 76.681821, 30.6039624 ], [ 76.68171, 30.6039646 ], [ 76.6813016, 30.6038517 ], [ 76.6811957, 30.603817 ], [ 76.6809511, 30.6037584 ], [ 76.6806082, 30.6036542 ], [ 76.6802476, 30.6034741 ], [ 76.6794432, 30.6028534 ], [ 76.6788608, 30.602382500000012 ], [ 76.6785078, 30.602083 ], [ 76.6779228, 30.601612 ], [ 76.6776026, 30.6012973 ], [ 76.6771412, 30.6008937 ], [ 76.6764528, 30.600503 ], [ 76.6762107, 30.600186099999988 ], [ 76.6761628, 30.5997325 ], [ 76.6761754, 30.5993549 ], [ 76.676236, 30.5990402 ], [ 76.6763091, 30.5989143 ], [ 76.6763746, 30.5984651 ], [ 76.6765133, 30.598146 ], [ 76.6766066, 30.597896399999986 ], [ 76.6765839, 30.5975166 ], [ 76.676652, 30.5971954 ], [ 76.6766318, 30.5967027 ], [ 76.6764301, 30.5963489 ], [ 76.6763015, 30.5960668 ], [ 76.6762158, 30.5957282 ], [ 76.676241, 30.5955806 ], [ 76.6763469, 30.5951921 ], [ 76.6764276, 30.5947211 ], [ 76.6765612, 30.5942762 ], [ 76.6766797, 30.593941900000011 ], [ 76.6770327, 30.59359030000001 ], [ 76.6774311, 30.5933125 ], [ 76.6776429, 30.5931931 ], [ 76.6778774, 30.5930737 ], [ 76.6781497, 30.5930065 ], [ 76.6787498, 30.5929457 ], [ 76.6790726, 30.5928654 ], [ 76.6794382, 30.5927417 ], [ 76.679708, 30.5926505 ], [ 76.6801215, 30.5924747 ], [ 76.680522400000015, 30.5922034 ], [ 76.6809965, 30.5918496 ], [ 76.681594, 30.591406799999987 ], [ 76.6819244, 30.5909684 ], [ 76.6820857, 30.59060370000001 ], [ 76.6820933, 30.5902738 ], [ 76.6819975, 30.5898722 ], [ 76.681647, 30.5895553 ], [ 76.6813041, 30.5894034 ], [ 76.6811856, 30.5892732 ], [ 76.6810242, 30.5891712 ], [ 76.680888, 30.5890257 ], [ 76.6808225, 30.588876 ], [ 76.6808956, 30.5885938 ], [ 76.6810847, 30.5882421 ], [ 76.6813318, 30.5879122 ], [ 76.6816218, 30.5877038 ], [ 76.6818689, 30.5875758 ], [ 76.6822698, 30.5871113 ], [ 76.6824438, 30.5869441 ], [ 76.682688400000018, 30.5866576 ], [ 76.6829506, 30.5861345 ], [ 76.6832985, 30.585774199999989 ], [ 76.68347, 30.5856352 ], [ 76.6836868, 30.5855441 ], [ 76.6840449, 30.5854768 ], [ 76.6843349, 30.5854073 ], [ 76.6846198, 30.5853965 ], [ 76.6850056, 30.5854486 ], [ 76.6852199, 30.5854833 ], [ 76.6854468, 30.5854681 ], [ 76.6857015, 30.5852966 ], [ 76.6859637, 30.5848951 ], [ 76.6862108, 30.58451740000001 ], [ 76.6864604, 30.5840376 ], [ 76.6867781, 30.5834885 ], [ 76.6869294, 30.5830912 ], [ 76.6871312, 30.5823923 ], [ 76.6871841, 30.5820818 ], [ 76.6873505, 30.5813829 ], [ 76.6874539, 30.5808011 ], [ 76.6874665, 30.5803561 ], [ 76.6874337, 30.5799567 ], [ 76.6873833, 30.5795942 ], [ 76.6871438, 30.5792143 ], [ 76.6867328, 30.5788691 ], [ 76.686231, 30.5785674 ], [ 76.6857797, 30.5782266 ], [ 76.6851594, 30.577794599999987 ], [ 76.6848139, 30.5774494 ], [ 76.6846727, 30.5772823 ], [ 76.6846248, 30.5770218 ], [ 76.6847383, 30.5766419 ], [ 76.684761, 30.5762576 ], [ 76.6847106, 30.5760883 ], [ 76.6847534, 30.575873399999988 ], [ 76.6847887, 30.5756237 ], [ 76.6848921, 30.575332800000012 ], [ 76.6851442, 30.5749746 ], [ 76.6853964, 30.5745014 ], [ 76.6855931, 30.574243 ], [ 76.6857721, 30.5740455 ], [ 76.6858553, 30.573830599999987 ], [ 76.6859158, 30.5736309 ], [ 76.6859536, 30.5733812 ], [ 76.6859738, 30.5731055 ], [ 76.6860091, 30.5729101 ], [ 76.6861276, 30.5725324 ], [ 76.6862915, 30.5722827 ], [ 76.6865991, 30.572024400000011 ], [ 76.6868109, 30.5717508 ], [ 76.686914300000012, 30.5715576 ], [ 76.6869471, 30.571258 ], [ 76.6868941, 30.5711256 ], [ 76.6868008, 30.570915 ], [ 76.6867479, 30.5707999 ], [ 76.6868412, 30.5706632 ], [ 76.6869521, 30.5705937 ], [ 76.6870858, 30.5705655 ], [ 76.687232, 30.5705221 ], [ 76.6875119, 30.5703202 ], [ 76.6877338, 30.5700922 ], [ 76.6880137, 30.5697318 ], [ 76.6882381, 30.5694583 ], [ 76.6884095, 30.569163 ], [ 76.6885104, 30.568896 ], [ 76.6884625, 30.568566 ], [ 76.6884398, 30.568236 ], [ 76.6884221, 30.5679299 ], [ 76.6884473, 30.5674457 ], [ 76.6884953, 30.5670224 ], [ 76.6884347, 30.5663407 ], [ 76.6883692, 30.5659151 ], [ 76.6883465, 30.5657219 ], [ 76.6885003, 30.565133499999988 ], [ 76.6885911, 30.5649143 ], [ 76.6887121, 30.5645408 ], [ 76.6887928, 30.564239 ], [ 76.6888457, 30.5639698 ], [ 76.6888936, 30.5637918 ], [ 76.688926400000014, 30.5636485 ], [ 76.6889088, 30.5635312 ], [ 76.6886465, 30.5633988 ], [ 76.6883818, 30.5633402 ], [ 76.6881423, 30.563249 ], [ 76.6880691, 30.5631752 ], [ 76.6880288, 30.5630427 ], [ 76.6878977, 30.5629081 ], [ 76.6875068, 30.5627388 ], [ 76.6870807, 30.5625955 ], [ 76.6868891, 30.5625108 ], [ 76.6867353, 30.562495599999988 ], [ 76.6865991, 30.5625195 ], [ 76.6864731, 30.5625759 ], [ 76.6863924, 30.5626736 ], [ 76.6863873, 30.5627931 ], [ 76.6863394, 30.5630406 ], [ 76.6863445, 30.5631708 ], [ 76.6864075, 30.5632924 ], [ 76.6865033, 30.5633728 ], [ 76.6865916, 30.5634249 ], [ 76.6866269, 30.5635095 ], [ 76.6866143, 30.5636333 ], [ 76.6867176, 30.563985 ], [ 76.6867555, 30.5641478 ], [ 76.6867025, 30.5642803 ], [ 76.6866117, 30.5643758 ], [ 76.6864907, 30.5644323 ], [ 76.686352, 30.5645148 ], [ 76.6861881, 30.5646711 ], [ 76.6858654, 30.5650814 ], [ 76.6857317, 30.5652551 ], [ 76.6855275, 30.5654114 ], [ 76.6851745, 30.5654722 ], [ 76.68464, 30.5654071 ], [ 76.6842517, 30.5653441 ], [ 76.6838608, 30.5652486 ], [ 76.6834675, 30.5650575 ], [ 76.6830136, 30.564721 ], [ 76.6827161, 30.5646515 ], [ 76.6825547, 30.5646407 ], [ 76.682416, 30.5646429 ], [ 76.6821992, 30.5646798 ], [ 76.6818891, 30.5647688 ], [ 76.6817252, 30.5647883 ], [ 76.6815991, 30.5647862 ], [ 76.6815033, 30.5647514 ], [ 76.6814024, 30.5645756 ], [ 76.6814301, 30.5642499 ], [ 76.6814226, 30.5640089 ], [ 76.6815007, 30.5636767 ], [ 76.681526, 30.5633597 ], [ 76.6815335, 30.5630753 ], [ 76.6815234, 30.5628864 ], [ 76.6813595, 30.5627605 ], [ 76.6811982, 30.5627062 ], [ 76.6810292, 30.5626888 ], [ 76.6808679, 30.5626932 ], [ 76.6805628, 30.5627692 ], [ 76.680298, 30.5628582 ], [ 76.6800963, 30.5629255 ], [ 76.679945, 30.562958099999989 ], [ 76.6796349, 30.5629429 ], [ 76.6794962, 30.562899399999985 ], [ 76.6792793, 30.5627192 ], [ 76.6791306, 30.5623393 ], [ 76.6789717, 30.56200710000001 ], [ 76.6786742, 30.5616966 ], [ 76.6783842, 30.561473 ], [ 76.6781951, 30.5612059 ], [ 76.6780337, 30.5610301 ], [ 76.6779102, 30.5608368 ], [ 76.6778673, 30.5606892 ], [ 76.6778547, 30.560509 ], [ 76.6778497, 30.5602832 ], [ 76.6777463, 30.5599336 ], [ 76.6776581, 30.5595428 ], [ 76.6776707, 30.5592627 ], [ 76.677653, 30.5587763 ], [ 76.6775723, 30.5582205 ], [ 76.677474, 30.5578666 ], [ 76.6774563, 30.5575843 ], [ 76.6775345, 30.5572369 ], [ 76.6776379, 30.5569395 ], [ 76.6779026, 30.5566268 ], [ 76.6782355, 30.5563684 ], [ 76.6788078, 30.5559515 ], [ 76.679292, 30.5556193 ], [ 76.6798366, 30.5554152 ], [ 76.6801568, 30.555208900000011 ], [ 76.6802501, 30.5551373 ], [ 76.680293, 30.5548528 ], [ 76.6802652, 30.5544902 ], [ 76.6802224, 30.554336 ], [ 76.680003, 30.554190599999984 ], [ 76.6797055, 30.5541081 ], [ 76.6793626, 30.5540407 ], [ 76.6789743, 30.5540234 ], [ 76.6784296, 30.5540277 ], [ 76.6782027, 30.554069 ], [ 76.6780312, 30.5542644 ], [ 76.6778245, 30.5544946 ], [ 76.6776707, 30.5548441 ], [ 76.6773832, 30.5551134 ], [ 76.6773177, 30.5551894 ], [ 76.6771664, 30.5552068 ], [ 76.6769445, 30.555222 ], [ 76.6767478, 30.5551981 ], [ 76.676241, 30.5550786 ], [ 76.6759838, 30.554931 ], [ 76.6756989, 30.5546552 ], [ 76.6753383, 30.5541037 ], [ 76.6750458, 30.5536846 ], [ 76.67465, 30.5533633 ], [ 76.6743348, 30.5531309 ], [ 76.6739162, 30.5529529 ], [ 76.6737574, 30.5527401 ], [ 76.6735203, 30.5524556 ], [ 76.6733388, 30.5523102 ], [ 76.6731295, 30.5522581 ], [ 76.6729076, 30.5522277 ], [ 76.6727009, 30.5521061 ], [ 76.6724866, 30.551928 ], [ 76.6722142, 30.5515241 ], [ 76.672136100000017, 30.5513374 ], [ 76.6721462, 30.5510269 ], [ 76.6721336, 30.5508575 ], [ 76.6718385, 30.5504362 ], [ 76.6718511, 30.5502191 ], [ 76.6717932, 30.5500801 ], [ 76.6718385, 30.5498956 ], [ 76.6718991, 30.54985 ], [ 76.6720403, 30.5498282 ], [ 76.672305, 30.5498586 ], [ 76.6725168, 30.5499911 ], [ 76.6726429, 30.5500628 ], [ 76.6727412, 30.5500953 ], [ 76.6729606, 30.5499889 ], [ 76.6734472, 30.5497718 ], [ 76.6739994, 30.5495611 ], [ 76.6746273, 30.549268 ], [ 76.6748365, 30.5491768 ], [ 76.674992900000021, 30.5491551 ], [ 76.6752047, 30.5491898 ], [ 76.675482, 30.5493071 ], [ 76.6757947, 30.5494309 ], [ 76.6761855, 30.5495655 ], [ 76.6764175, 30.5496154 ], [ 76.6765537, 30.5496306 ], [ 76.6767276, 30.5496089 ], [ 76.6768411, 30.5495177 ], [ 76.6769369, 30.5493505 ], [ 76.6769571, 30.5492029 ], [ 76.6769647, 30.5489835 ], [ 76.6770378, 30.5486709 ], [ 76.6773227, 30.5482496 ], [ 76.6776303, 30.5477545 ], [ 76.6780136, 30.5472312 ], [ 76.678354, 30.5469141 ], [ 76.6788179, 30.5465971 ], [ 76.6792617, 30.5462453 ], [ 76.6796071, 30.545976 ], [ 76.6797509, 30.545748 ], [ 76.6797862, 30.5455938 ], [ 76.6797383, 30.545444 ], [ 76.6795542, 30.5454006 ], [ 76.6792113, 30.5454288 ], [ 76.6789616, 30.5454744 ], [ 76.6787398, 30.5454353 ], [ 76.678591, 30.5453028 ], [ 76.6785759, 30.5450444 ], [ 76.678596, 30.5448924 ], [ 76.6787398, 30.5447817 ], [ 76.6789188, 30.5446535 ], [ 76.67919790000002, 30.5443751 ], [ 76.6794903, 30.5438377 ], [ 76.6795259, 30.5436688 ], [ 76.6795153, 30.54346 ], [ 76.6791993, 30.5432685 ], [ 76.6788329, 30.5430962 ], [ 76.6781994, 30.5431221 ], [ 76.6773757, 30.5433832 ], [ 76.6770013, 30.5436442 ], [ 76.676552, 30.5440711 ], [ 76.6761348, 30.5447007 ], [ 76.6759209, 30.5449218 ], [ 76.6754323, 30.545278 ], [ 76.6750116, 30.5452903 ], [ 76.6747833, 30.5450262 ], [ 76.674719200000013, 30.5447928 ], [ 76.6747869, 30.5445625 ], [ 76.6747512, 30.5442584 ], [ 76.6744945, 30.5435582 ], [ 76.6743661, 30.5431068 ], [ 76.6741736, 30.5427659 ], [ 76.673874, 30.5424987 ], [ 76.673332, 30.542296 ], [ 76.6724976, 30.5422008 ], [ 76.6717416, 30.5421455 ], [ 76.6709037, 30.5420411 ], [ 76.6705792, 30.5419766 ], [ 76.6699623, 30.5419828 ], [ 76.6694285, 30.5421509 ], [ 76.6690605, 30.5422881 ], [ 76.6686936, 30.5423214 ], [ 76.6684404, 30.5421975 ], [ 76.668228, 30.5419555 ], [ 76.6679265, 30.5415655 ], [ 76.667477, 30.5412421 ], [ 76.666963, 30.540740299999989 ], [ 76.666124, 30.5399752 ], [ 76.665337100000016, 30.539194 ], [ 76.6648243, 30.5386682 ], [ 76.6643989, 30.5383221 ], [ 76.6640373, 30.5381378 ], [ 76.6637793, 30.5380541 ], [ 76.663476, 30.5381499 ], [ 76.663039, 30.5384302 ], [ 76.662642, 30.5383914 ], [ 76.6622837, 30.5381479 ], [ 76.6619533, 30.5376585 ], [ 76.6613873, 30.5370483 ], [ 76.6605826, 30.5365673 ], [ 76.659956, 30.5363626 ], [ 76.6593456, 30.5360424 ], [ 76.6588858, 30.5354815 ], [ 76.6581461, 30.534855 ], [ 76.6574219, 30.534385499999988 ], [ 76.6568297, 30.5342224 ], [ 76.6562423, 30.5341189 ], [ 76.655633900000012, 30.5342492 ], [ 76.6549748, 30.5344178 ], [ 76.65445, 30.5345324 ], [ 76.65403, 30.5344705 ], [ 76.6536486, 30.5343014 ], [ 76.653368, 30.534228 ], [ 76.652941, 30.5342012 ], [ 76.651749, 30.5345154 ], [ 76.6510382, 30.5347528 ], [ 76.6504058, 30.5347491 ], [ 76.6499332, 30.5348023 ], [ 76.649567100000013, 30.5348675 ], [ 76.6489136, 30.5352349 ], [ 76.6482681, 30.5359907 ], [ 76.6480462, 30.5362426 ], [ 76.6476468, 30.5364393 ], [ 76.6472129, 30.5363451 ], [ 76.6468561, 30.5362426 ], [ 76.6465636, 30.5362774 ], [ 76.6463492, 30.5363427 ], [ 76.6459077, 30.5363173 ], [ 76.6454818, 30.5361002 ], [ 76.6453466, 30.5356127 ], [ 76.6449212, 30.5350698 ], [ 76.644825200000014, 30.534392 ], [ 76.6446101, 30.5329989 ], [ 76.6442463, 30.5306276 ], [ 76.6440216, 30.5287807 ], [ 76.6436423, 30.5268801 ], [ 76.643395, 30.5250498 ], [ 76.643122, 30.5228151 ], [ 76.6428441, 30.5211755 ], [ 76.6426343, 30.5199611 ], [ 76.642332900000014, 30.5181167 ], [ 76.6421081, 30.516612 ], [ 76.6417996, 30.5145786 ], [ 76.6416376, 30.5134334 ], [ 76.6417095, 30.5127984 ], [ 76.6418816, 30.5123136 ], [ 76.6426982, 30.5111247 ], [ 76.6429692, 30.5106639 ], [ 76.6432937, 30.5101324 ], [ 76.643996200000018, 30.5086824 ], [ 76.644071, 30.5082861 ], [ 76.6440639, 30.5079266 ], [ 76.6438749, 30.507416599999988 ], [ 76.6431189, 30.5066793 ], [ 76.6426803, 30.506412 ], [ 76.6425876, 30.5063291 ], [ 76.6421847, 30.5060986 ], [ 76.641632, 30.5056931 ], [ 76.6412183, 30.505385899999986 ], [ 76.6407049, 30.5050295 ], [ 76.639496, 30.504061700000012 ], [ 76.6385261, 30.5032537 ], [ 76.6374278, 30.5024426 ], [ 76.636718200000018, 30.5018219 ], [ 76.6353667, 30.500629799999988 ], [ 76.634625, 30.4999201 ], [ 76.6343933, 30.4997327 ], [ 76.6339689, 30.4995022 ], [ 76.6335125, 30.4991428 ], [ 76.6328706, 30.4985344 ], [ 76.631868600000018, 30.4976987 ], [ 76.6307311, 30.4969029 ], [ 76.6296827, 30.495975 ], [ 76.6287342, 30.4951085 ], [ 76.6277465, 30.4943711 ], [ 76.6272116, 30.4938979 ], [ 76.6260669, 30.4929822 ], [ 76.6257959, 30.4927026 ], [ 76.6254964, 30.4923708 ], [ 76.6249972, 30.4920942 ], [ 76.6240344, 30.491283 ], [ 76.6227008, 30.490152299999988 ], [ 76.6210391, 30.488981500000012 ], [ 76.6205434, 30.48837 ], [ 76.6197411, 30.4877401 ], [ 76.6184217, 30.4865909 ], [ 76.616867, 30.4853125 ], [ 76.6159648, 30.4846027 ], [ 76.6146704, 30.4835118 ], [ 76.61374330000001, 30.4826821 ], [ 76.6131514, 30.4820521 ], [ 76.6120638, 30.4808905 ], [ 76.6102416, 30.4789544 ], [ 76.609428600000015, 30.4779864 ], [ 76.6092895, 30.4778266 ], [ 76.609318, 30.4776207 ], [ 76.6094928, 30.4774855 ], [ 76.6101881, 30.4770552 ], [ 76.6112115, 30.476794 ], [ 76.611725, 30.4764129 ], [ 76.6121493, 30.4761394 ], [ 76.6127199, 30.475703 ], [ 76.6130301, 30.4754264 ], [ 76.6131228, 30.4748179 ], [ 76.6130479, 30.4746028 ], [ 76.6129731, 30.474486 ], [ 76.6128304, 30.4743569 ], [ 76.6126557, 30.4742432 ], [ 76.6124168, 30.4743815 ], [ 76.6122741, 30.4744307 ], [ 76.6120566, 30.47436 ], [ 76.6118177, 30.4740588 ], [ 76.6118106, 30.4740097 ], [ 76.6118462, 30.4736224 ], [ 76.6118997, 30.4734688 ], [ 76.6119817, 30.4734349 ], [ 76.612131500000018, 30.4734288 ], [ 76.6122741, 30.4734626 ], [ 76.6123562, 30.4734104 ], [ 76.6123776, 30.4732598 ], [ 76.6123847, 30.4729063 ], [ 76.6125523, 30.4721226 ], [ 76.6126486, 30.4711976 ], [ 76.6126914, 30.4705952 ], [ 76.6126664, 30.4704477 ], [ 76.6125238, 30.4704077 ], [ 76.6118676, 30.4704231 ], [ 76.6117179, 30.4703923 ], [ 76.6110653, 30.4702233 ], [ 76.6109369, 30.470128 ], [ 76.6108086, 30.4699283 ], [ 76.6107444, 30.4697715 ], [ 76.6106481, 30.4694334 ], [ 76.6106303, 30.469332 ], [ 76.6105804, 30.4691783 ], [ 76.6104948, 30.4690769 ], [ 76.6102416, 30.4689263 ], [ 76.609557, 30.4686313 ], [ 76.6092218, 30.4684745 ], [ 76.6089294, 30.4683116 ], [ 76.6087725, 30.4680842 ], [ 76.6087796, 30.467949 ], [ 76.6088973, 30.467657 ], [ 76.6092111, 30.4668948 ], [ 76.6094143, 30.4663661 ], [ 76.6094143, 30.4657575 ], [ 76.6092539, 30.4650844 ], [ 76.6087582, 30.4635292 ], [ 76.6084337, 30.4625088 ], [ 76.6083089, 30.4619678 ], [ 76.6081235, 30.4613869 ], [ 76.6077562, 30.4604709 ], [ 76.607528, 30.4594781 ], [ 76.6072855, 30.4588019 ], [ 76.6070787, 30.4582732 ], [ 76.6068719, 30.4574679 ], [ 76.6066436, 30.4567455 ], [ 76.6063584, 30.4558234 ], [ 76.6057956, 30.4541693 ], [ 76.6054754, 30.4529749 ], [ 76.6053317, 30.4523597 ], [ 76.6051073, 30.4517164 ], [ 76.6046559, 30.4503513 ], [ 76.6044189, 30.4493079 ], [ 76.6043357, 30.4486276 ], [ 76.6046068, 30.4459183 ], [ 76.6047026, 30.4449227 ], [ 76.6050001, 30.442901 ], [ 76.605222, 30.4411416 ], [ 76.6053027, 30.4399156 ], [ 76.6052775, 30.4394938 ], [ 76.6052498, 30.4393308 ], [ 76.6052901, 30.4391699 ], [ 76.605546, 30.4388901 ], [ 76.6057457, 30.4383798 ], [ 76.6057457, 30.4369 ], [ 76.6057457, 30.436363 ], [ 76.6058313, 30.4357481 ], [ 76.6058954, 30.435096299999987 ], [ 76.6060951, 30.4343645 ], [ 76.6061664, 30.4337927 ], [ 76.6062734, 30.432286099999988 ], [ 76.6064375, 30.4309763 ], [ 76.6066799, 30.428535 ], [ 76.6070864, 30.4252881 ], [ 76.6072861, 30.4235969 ], [ 76.6075143, 30.422569899999989 ], [ 76.6076285, 30.4217889 ], [ 76.6077925, 30.4213523 ], [ 76.6080706, 30.4209402 ], [ 76.6082275, 30.4206635 ], [ 76.6085128, 30.4199562 ], [ 76.6092331, 30.418388 ], [ 76.6102957, 30.4165429 ], [ 76.6106095, 30.4155589 ], [ 76.6112799, 30.4141812 ], [ 76.6120002, 30.412711300000012 ], [ 76.6126777, 30.4112352 ], [ 76.6132197, 30.4100789 ], [ 76.6138545, 30.4089348 ], [ 76.614318, 30.407864599999986 ], [ 76.6153878, 30.4054535 ], [ 76.6162293, 30.4037128 ], [ 76.6166501, 30.4028147 ], [ 76.6171707, 30.4018306 ], [ 76.6180622, 30.4007726 ], [ 76.6193744, 30.3996408 ], [ 76.6216209, 30.3978815 ], [ 76.6231115, 30.3967066 ], [ 76.6253223, 30.3950211 ], [ 76.6268913, 30.393747699999984 ], [ 76.6284959, 30.3925112 ], [ 76.6299722, 30.3913178 ], [ 76.6317124, 30.3898536 ], [ 76.6325325, 30.3892446 ], [ 76.6334382, 30.3885925 ], [ 76.6340373, 30.3879834 ], [ 76.6345894, 30.387284399999988 ], [ 76.6358204, 30.3856155 ], [ 76.6361269, 30.3852092 ], [ 76.6365404, 30.3846611 ], [ 76.6361192, 30.3834194 ], [ 76.6362642, 30.382333099999986 ], [ 76.6373279, 30.378628099999986 ], [ 76.6405905, 30.3687579 ], [ 76.6423702, 30.3625611 ], [ 76.641099, 30.3493253 ], [ 76.6419464, 30.347442199999989 ], [ 76.6415037, 30.3432446 ], [ 76.6412, 30.3403642 ], [ 76.6399416, 30.3391101 ], [ 76.6383237, 30.3379594 ], [ 76.6325952, 30.3299508 ], [ 76.6333155, 30.3233309 ], [ 76.633378, 30.322464199999985 ], [ 76.6324681, 30.3218313 ], [ 76.6287817, 30.318429699999985 ], [ 76.6280862, 30.317256 ], [ 76.6280149, 30.3167512 ], [ 76.6285136, 30.3158714 ], [ 76.6295411, 30.3083657 ], [ 76.6294173, 30.3076023 ], [ 76.6292701, 30.3068141 ], [ 76.6284004, 30.3055172 ], [ 76.6279196, 30.305082 ] ] } }
]
}
